NOAA 18                 
1 28654U 05018A   22229.53902056  .00000151  00000+0  10544-3 0  9999
2 28654  98.9457 299.9177 0014844 155.4382 204.7500 14.12765242888693
NOAA 19                 
1 33591U 09005A   22229.47638893  .00000130  00000+0  95242-4 0  9999
2 33591  99.1444 264.8838 0014170  21.0226 339.1524 14.12599502697062
SUOMI NPP               
1 37849U 11061A   22229.52172466  .00000060  00000+0  49017-4 0  9990
2 37849  98.7335 167.2321 0001263  85.8567 333.7729 14.19538436559851
NOAA 20                 
1 43013U 17073A   22229.54455684  .00000032  00000+0  35718-4 0  9999
2 43013  98.7174 167.1493 0000746  92.7194 267.4068 14.19565900245890
NOAA 17 [-]             
1 27453U 02032A   22229.23364434  .00000071  00000+0  48711-4 0  9996
2 27453  98.6740 173.7939 0013002  94.4233 265.8432 14.25134454 47528
