[{"OBJECT_NAME":"NOAA 17 [-]","OBJECT_ID":"2002-032A","EPOCH":"2022-08-17T05:36:26.870976","MEAN_MOTION":14.25134454,"ECCENTRICITY":0.0013002,"INCLINATION":98.674,"RA_OF_ASC_NODE":173.7939,"ARG_OF_PERICENTER":94.4233,"MEAN_ANOMALY":265.8432,"EPHEMERIS_TYPE":0,"CLASSIFICATION_TYPE":"U","NORAD_CAT_ID":27453,"ELEMENT_SET_NO":999,"REV_AT_EPOCH":4752,"BSTAR":4.8711e-5,"MEAN_MOTION_DOT":7.1e-7,"MEAN_MOTION_DDOT":0},{"OBJECT_NAME":"NOAA 18 [B]","OBJECT_ID":"2005-018A","EPOCH":"2022-08-17T12:56:11.376384","MEAN_MOTION":14.12765242,"ECCENTRICITY":0.0014844,"INCLINATION":98.9457,"RA_OF_ASC_NODE":299.9177,"ARG_OF_PERICENTER":155.4382,"MEAN_ANOMALY":204.75,"EPHEMERIS_TYPE":0,"CLASSIFICATION_TYPE":"U","NORAD_CAT_ID":28654,"ELEMENT_SET_NO":999,"REV_AT_EPOCH":88869,"BSTAR":0.00010544,"MEAN_MOTION_DOT":1.51e-6,"MEAN_MOTION_DDOT":0},{"OBJECT_NAME":"NOAA 19 [+]","OBJECT_ID":"2009-005A","EPOCH":"2022-08-17T11:26:00.003552","MEAN_MOTION":14.12599502,"ECCENTRICITY":0.001417,"INCLINATION":99.1444,"RA_OF_ASC_NODE":264.8838,"ARG_OF_PERICENTER":21.0226,"MEAN_ANOMALY":339.1524,"EPHEMERIS_TYPE":0,"CLASSIFICATION_TYPE":"U","NORAD_CAT_ID":33591,"ELEMENT_SET_NO":999,"REV_AT_EPOCH":69706,"BSTAR":9.5242e-5,"MEAN_MOTION_DOT":1.3e-6,"MEAN_MOTION_DDOT":0},{"OBJECT_NAME":"SUOMI NPP [+]","OBJECT_ID":"2011-061A","EPOCH":"2022-08-17T12:31:17.010624","MEAN_MOTION":14.19538436,"ECCENTRICITY":0.0001263,"INCLINATION":98.7335,"RA_OF_ASC_NODE":167.2321,"ARG_OF_PERICENTER":85.8567,"MEAN_ANOMALY":333.7729,"EPHEMERIS_TYPE":0,"CLASSIFICATION_TYPE":"U","NORAD_CAT_ID":37849,"ELEMENT_SET_NO":999,"REV_AT_EPOCH":55985,"BSTAR":4.9017e-5,"MEAN_MOTION_DOT":6.0e-7,"MEAN_MOTION_DDOT":0},{"OBJECT_NAME":"NOAA 20 [+]","OBJECT_ID":"2017-073A","EPOCH":"2022-08-17T13:04:09.710976","MEAN_MOTION":14.195659,"ECCENTRICITY":7.46e-5,"INCLINATION":98.7174,"RA_OF_ASC_NODE":167.1493,"ARG_OF_PERICENTER":92.7194,"MEAN_ANOMALY":267.4068,"EPHEMERIS_TYPE":0,"CLASSIFICATION_TYPE":"U","NORAD_CAT_ID":43013,"ELEMENT_SET_NO":999,"REV_AT_EPOCH":24589,"BSTAR":3.5718e-5,"MEAN_MOTION_DOT":3.2e-7,"MEAN_MOTION_DDOT":0}]